NORAD_CAT_ID,OBJECT_NAME,OBJECT_TYPE,EPOCH,MEAN_MOTION,ECCENTRICITY,INCLINATION,RA_OF_ASC_NODE,ARG_OF_PERICENTER,MEAN_ANOMALY,BSTAR,MEAN_MOTION_DOT,MEAN_MOTION_DDOT,TLE_LINE0,TLE_LINE1,TLE_LINE2,SEMIMAJOR_AXIS,PERIOD,APOGEE,PERIGEE,DECAYED
53901.0,STARLINK-5024,PAYLOAD,2024-03-05 03:04:50,15.088462,0.0001438,53.2186,21.4885,86.7695,273.3462,5.7418e-05,6.26e-06,0.0,0 STARLINK-5024,1 53901U 22119R   24065.12836041  .00000626  00000-0  57418-4 0  9998,2 53901  53.2186  21.4885 0001438  86.7695 273.3462 15.08846200 80379,6917.861,95.437,540.721,538.732,0.0
53901.0,STARLINK-5024,PAYLOAD,2024-03-05 06:15:36,15.08853614,0.0001426,53.2186,20.8935,85.5073,274.6082,0.00017105,2.436e-05,0.0,0 STARLINK-5024,1 53901U 22119R   24065.26083613  .00002436  00000-0  17105-3 0  9991,2 53901  53.2186  20.8935 0001426  85.5073 274.6082 15.08853614 80810,6917.839,95.437,540.69,538.717,0.0
53901.0,STARLINK-5024,PAYLOAD,2024-03-06 02:55:37,15.08831183,0.0002108,53.2199,17.0279,48.245,311.8723,-0.00025583,-4.357e-05,0.0,0 STARLINK-5024,1 53901U 22119R   24066.12196625 -.00004357  00000-0 -25583-3 0  9990,2 53901  53.2199  17.0279 0002108  48.2450 311.8723 15.08831183 80527,6917.907,95.438,541.231,538.314,0.0
53901.0,STARLINK-5024,PAYLOAD,2024-03-07 13:54:07,15.08843137,0.0001411,53.2192,10.4851,100.1698,259.9453,0.00030906,4.635e-05,0.0,0 STARLINK-5024,1 53901U 22119R   24067.57924775  .00004635  00000-0  30906-3 0  9997,2 53901  53.2192  10.4851 0001411 100.1698 259.9453 15.08843137 81166,6917.871,95.437,540.712,538.76,0.0
53901.0,STARLINK-5024,PAYLOAD,2024-03-08 01:01:49,15.08840281,0.0001689,53.2199,8.4014,106.536,253.5818,0.00036,5.446e-05,0.0,0 STARLINK-5024,1 53901U 22119R   24068.04293263  .00005446  00000-0  36000-3 0  9993,2 53901  53.2199   8.4014 0001689 106.5360 253.5818 15.08840281 80817,6917.88,95.438,540.913,538.576,0.0
53901.0,STARLINK-5024,PAYLOAD,2024-03-08 02:37:12,15.08838951,0.0001636,53.2199,8.1047,105.2038,254.9135,0.00032023,4.812e-05,0.0,0 STARLINK-5024,1 53901U 22119R   24068.10917339  .00004812  00000-0  32023-3 0  9994,2 53901  53.2199   8.1047 0001636 105.2038 254.9135 15.08838951 81246,6917.884,95.438,540.88,538.617,0.0
53901.0,STARLINK-5024,PAYLOAD,2024-03-09 02:27:59,15.08841782,0.0001508,53.2193,3.6472,96.3143,263.8021,0.00014076,1.953e-05,0.0,0 STARLINK-5024,1 53901U 22119R   24069.10277368  .00001953  00000-0  14076-3 0  9997,2 53901  53.2193   3.6472 0001508  96.3143 263.8021 15.08841782 80975,6917.875,95.437,540.783,538.697,0.0
53901.0,STARLINK-5024,PAYLOAD,2024-03-09 12:00:18,15.08847796,0.0001439,53.2194,1.8656,99.5531,260.5624,0.0002217,3.243e-05,0.0,0 STARLINK-5024,1 53901U 22119R   24069.50021098  .00003243  00000-0  22170-3 0  9996,2 53901  53.2194   1.8656 0001439  99.5531 260.5624 15.08847796 81457,6917.857,95.437,540.717,538.726,0.0
53901.0,STARLINK-5024,PAYLOAD,2024-03-10 11:51:04,15.08856312,0.0001236,53.2193,357.4055,90.5318,269.5816,0.00033464,5.044e-05,0.0,0 STARLINK-5024,1 53901U 22119R   24070.49380493  .00005044  00000-0  33464-3 0  9992,2 53901  53.2193 357.4055 0001236  90.5318 269.5816 15.08856312 81184,6917.831,95.437,540.551,538.84,0.0
53901.0,STARLINK-5024,PAYLOAD,2024-03-10 22:58:47,15.0883024,0.0001403,53.2188,355.3242,91.6146,268.5007,-0.00017851,-3.127e-05,0.0,0 STARLINK-5024,1 53901U 22119R   24070.95749631 -.00003127  00000-0 -17851-3 0  9990,2 53901  53.2188 355.3242 0001403  91.6146 268.5007 15.08830240 81677,6917.91,95.438,540.746,538.805,0.0
53901.0,STARLINK-5024,PAYLOAD,2024-03-11 02:09:33,15.08833469,0.0001388,53.2185,354.7303,92.1808,267.9343,-9.2651e-05,-1.762e-05,0.0,0 STARLINK-5024,1 53901U 22119R   24071.08997664 -.00001762  00000-0 -92651-4 0  9991,2 53901  53.2185 354.7303 0001388  92.1808 267.9343 15.08833469 81276,6917.9,95.438,540.726,538.805,0.0
53901.0,STARLINK-5024,PAYLOAD,2024-03-11 11:41:52,15.08842917,0.0001461,53.2188,352.9451,90.5657,269.5503,0.0001553,2.185e-05,0.0,0 STARLINK-5024,1 53901U 22119R   24071.48741444  .00002185  00000-0  15530-3 0  9996,2 53901  53.2188 352.9451 0001461  90.5657 269.5503 15.08842917 81756,6917.871,95.437,540.747,538.726,0.0
53901.0,STARLINK-5024,PAYLOAD,2024-03-12 03:35:44,15.08831936,0.000139,53.2184,349.9715,88.5922,271.523,-5.6821e-05,-1.192e-05,0.0,0 STARLINK-5024,1 53901U 22119R   24072.14982057 -.00001192  00000-0 -56821-4 0  9995,2 53901  53.2184 349.9715 0001390  88.5922 271.5230 15.08831936 81438,6917.905,95.438,540.732,538.808,0.0
53901.0,STARLINK-5024,PAYLOAD,2024-03-12 11:32:39,15.08845047,0.0001629,53.2181,348.4831,83.4992,276.6186,0.00024166,3.561e-05,0.0,0 STARLINK-5024,1 53901U 22119R   24072.48101726  .00003561  00000-0  24166-3 0  9994,2 53901  53.2181 348.4831 0001629  83.4992 276.6186 15.08845047 81483,6917.865,95.437,540.857,538.603,0.0
53901.0,STARLINK-5024,PAYLOAD,2024-03-13 11:23:26,15.08855128,0.0001487,53.2184,344.0244,78.2265,281.8894,0.00036434,5.518e-05,0.0,0 STARLINK-5024,1 53901U 22119R   24073.47461187  .00005518  00000-0  36434-3 0  9999,2 53901  53.2184 344.0244 0001487  78.2265 281.8894 15.08855128 82052,6917.834,95.437,540.728,538.67,0.0
53901.0,STARLINK-5024,PAYLOAD,2024-03-13 22:31:09,15.08837769,0.0001744,53.2201,341.9394,87.7946,272.3246,0.00010019,1.307e-05,0.0,0 STARLINK-5024,1 53901U 22119R   24073.93830078  .00001307  00000-0  10019-3 0  9992,2 53901  53.2201 341.9394 0001744  87.7946 272.3246 15.08837769 82126,6917.887,95.438,540.959,538.546,0.0
53901.0,STARLINK-5024,PAYLOAD,2024-03-14 00:06:32,15.08841288,0.0001677,53.2191,341.6439,83.5031,276.6152,-1.558e-05,-5.36e-06,0.0,0 STARLINK-5024,1 53901U 22119R   24074.00453939 -.00000536  00000-0 -15580-4 0  9992,2 53901  53.2191 341.6439 0001677  83.5031 276.6152 15.08841288 81713,6917.876,95.437,540.902,538.581,0.0
53901.0,STARLINK-5024,PAYLOAD,2024-03-14 22:21:55,15.0884246,0.0001586,53.2168,337.4787,89.578,270.5394,6.1277e-06,-1.9e-06,0.0,0 STARLINK-5024,1 53901U 22119R   24074.93189801 -.00000190  00000-0  61277-5 0  9998,2 53901  53.2168 337.4787 0001586  89.5780 270.5394 15.08842460 82278,6917.873,95.437,540.835,538.641,0.0
53901.0,STARLINK-5024,PAYLOAD,2024-03-15 03:08:05,15.08841607,0.0001335,53.2172,336.5869,92.2275,267.887,8.1251e-06,-1.59e-06,0.0,0 STARLINK-5024,1 53901U 22119R   24075.13061869 -.00000159  00000-0  81251-5 0  9993,2 53901  53.2172 336.5869 0001335  92.2275 267.8870 15.08841607 81882,6917.875,95.437,540.664,538.817,0.0
53901.0,STARLINK-5024,PAYLOAD,2024-03-15 22:12:43,15.08838203,0.0001331,53.2169,333.0176,94.7948,265.3197,0.00015881,2.24e-05,0.0,0 STARLINK-5024,1 53901U 22119R   24075.92550178  .00002240  00000-0  15881-3 0  9992,2 53901  53.2169 333.0176 0001331  94.7948 265.3197 15.08838203 82425,6917.886,95.438,540.672,538.83,0.0
53901.0,STARLINK-5024,PAYLOAD,2024-03-15 23:48:06,15.08839362,0.000143,53.2174,332.7211,108.7103,251.4045,0.00013186,1.811e-05,0.0,0 STARLINK-5024,1 53901U 22119R   24075.99174057  .00001811  00000-0  13186-3 0  9996,2 53901  53.2174 332.7211 0001430 108.7103 251.4045 15.08839362 82432,6917.882,95.438,540.737,538.758,0.0
53901.0,STARLINK-5024,PAYLOAD,2024-03-16 20:28:07,15.08837872,0.000148,53.2176,328.8562,116.5271,243.5873,9.2319e-05,1.182e-05,0.0,0 STARLINK-5024,1 53901U 22119R   24076.85286207  .00001182  00000-0  92319-4 0  9990,2 53901  53.2176 328.8562 0001480 116.5271 243.5873 15.08837872 82140,6917.887,95.438,540.776,538.728,0.0
53901.0,STARLINK-5024,PAYLOAD,2024-03-16 22:03:30,15.08837582,0.000147,53.2176,328.5587,117.2261,242.8881,8.153e-05,1.01e-05,0.0,0 STARLINK-5024,1 53901U 22119R   24076.91910219  .00001010  00000-0  81530-4 0  9997,2 53901  53.2176 328.5587 0001470 117.2261 242.8881 15.08837582 82576,6917.888,95.438,540.77,538.736,0.0
53901.0,STARLINK-5024,PAYLOAD,2024-03-17 21:54:17,15.08838792,0.000141,53.2183,324.1,115.5594,244.5544,9.4101e-05,1.21e-05,0.0,0 STARLINK-5024,1 53901U 22119R   24077.91270390  .00001210  00000-0  94101-4 0  9997,2 53901  53.2183 324.1000 0001410 115.5594 244.5544 15.08838792 82726,6917.884,95.438,540.725,538.774,0.0
53901.0,STARLINK-5024,PAYLOAD,2024-03-18 02:40:26,15.08842158,0.000123,53.2179,323.2079,108.2525,251.8601,0.00011177,1.492e-05,0.0,0 STARLINK-5024,1 53901U 22119R   24078.11142150  .00001492  00000-0  11177-3 0  9995,2 53901  53.2179 323.2079 0001230 108.2525 251.8601 15.08842158 82333,6917.874,95.437,540.59,538.888,0.0
53901.0,STARLINK-5024,PAYLOAD,2024-03-18 16:58:55,15.08836618,0.0001182,53.2181,320.5311,102.7368,257.3756,0.0001049,1.382e-05,0.0,0 STARLINK-5024,1 53901U 22119R   24078.70758606  .00001382  00000-0  10490-3 0  9994,2 53901  53.2181 320.5311 0001182 102.7368 257.3756 15.08836618 82421,6917.891,95.438,540.573,538.938,0.0
53901.0,STARLINK-5024,PAYLOAD,2024-03-18 21:45:04,15.08837162,0.0001174,53.2182,319.6391,102.7645,257.3478,0.00010151,1.328e-05,0.0,0 STARLINK-5024,1 53901U 22119R   24078.90630624  .00001328  00000-0  10151-3 0  9999,2 53901  53.2182 319.6391 0001174 102.7645 257.3478 15.08837162 82873,6917.889,95.438,540.566,538.942,0.0
53901.0,STARLINK-5024,PAYLOAD,2024-03-19 00:55:51,15.0883866,0.0001148,53.2182,319.0444,100.3069,259.8053,0.00011062,1.473e-05,0.0,0 STARLINK-5024,1 53901U 22119R   24079.03878534  .00001473  00000-0  11062-3 0  9991,2 53901  53.2182 319.0444 0001148 100.3069 259.8053 15.08838660 82893,6917.884,95.438,540.544,538.955,0.0
53901.0,STARLINK-5024,PAYLOAD,2024-03-19 21:35:51,15.08846833,0.0001143,53.2178,315.1784,87.5523,272.56,0.00012356,1.68e-05,0.0,0 STARLINK-5024,1 53901U 22119R   24079.89990037  .00001680  00000-0  12356-3 0  9995,2 53901  53.2178 315.1784 0001143  87.5523 272.5600 15.08846833 82608,6917.86,95.437,540.515,538.934,0.0
53901.0,STARLINK-5024,PAYLOAD,2024-03-19 23:11:14,15.0884654,0.0001179,53.2174,314.8812,87.4735,272.6392,0.00012443,1.693e-05,0.0,0 STARLINK-5024,1 53901U 22119R   24079.96613941  .00001693  00000-0  12443-3 0  9990,2 53901  53.2174 314.8812 0001179  87.4735 272.6392 15.08846540 83037,6917.86,95.437,540.541,538.91,0.0
